{
  "norad_id": 63050,
  "name": "STARLINK-32816",
  "history": [
    {
      "epoch": "2026-03-28T15:01:53.816448Z",
      "apogee_km": 476.13068409491734,
      "perigee_km": 474.27562198229316,
      "latitude_deg": 7.470439536405136e-06,
      "longitude_deg": 131.59980802621328,
      "height_km": 475.7929671368936,
      "semi_major_axis_km": 6853.340153038605,
      "eccentricity": 0.00013534,
      "inclination_deg": 53.159,
      "raan_deg": 183.1181,
      "arg_perigee_deg": 70.596,
      "mean_anomaly_deg": 289.5187,
      "mean_motion_rev_day": 15.30203991
    },
    {
      "epoch": "2026-03-30T06:13:13.850112Z",
      "apogee_km": 475.9219716349753,
      "perigee_km": 474.50798805449267,
      "latitude_deg": 2.353079374644949e-05,
      "longitude_deg": -105.42868380778009,
      "height_km": 475.871214292876,
      "semi_major_axis_km": 6853.351979844733,
      "eccentricity": 0.00010316,
      "inclination_deg": 53.159,
      "raan_deg": 175.5325,
      "arg_perigee_deg": 69.9711,
      "mean_anomaly_deg": 290.1401,
      "mean_motion_rev_day": 15.3020003
    }
  ]
}